{
"type":"FeatureCollection",
"features":[
{"type":"Feature","geometry":{"type":"Point","coordinates":[35.7433,32.9036]},"properties":{
 "id":"gamla-vultures","kind":"birds","name_he":"מצפור הנשרים – שמורת גמלא","name_en":"Gamla Vulture Lookout",
 "region":"golan","season_he":"כל השנה; שיא הקינון בחורף–אביב",
 "species_he":["נשר מקראי","עיט זהוב","רחם","עורב שחור"],
 "description_he":"מושבת הקינון הגדולה בישראל של נשרים מקראיים. ממבנה התצפית שעל שפת המצוק צופים במשקפת אל הנשרים המקננים במצוק שמנגד, מעל נחל גמלא היורד לכינרת. הנשר הוא אוכל נבלות ולא דורס — נקודה שכדאי להדגיש למטיילים, כי השם 'נשר' בעברית מודרנית מבלבל. אוכלוסיית הנשרים בארץ מנוטרת בקפידה ונמצאת בסכנת הכחדה, בעיקר בגלל הרעלות.",
 "sources":[{"title":"שמורת טבע גמלא – רשות הטבע והגנים","url":"https://www.parks.org.il/reserve-park/שמורת-טבע-גמלא/"},{"title":"גמלא (שמורת טבע) – ויקיפדיה","url":"https://he.wikipedia.org/wiki/גמלא_(שמורת_טבע)"}]}},

{"type":"Feature","geometry":{"type":"Point","coordinates":[35.5967,33.0833]},"properties":{
 "id":"agamon-hula-cranes","kind":"birds","name_he":"אגמון החולה – עגורים ונדידה","name_en":"Agamon Hula – Cranes & Migration",
 "region":"hula-valley","season_he":"שיא: נובמבר–פברואר (חורף); נדידה בסתיו ובאביב",
 "species_he":["עגור אפור","שקנאי מצוי","פלמינגו","ברווזים ואנפות"],
 "description_he":"אחד מאתרי הצפרות החשובים בעולם. בכל עונת נדידה חולפות מעל העמק מאות מיליוני ציפורים, וישראל כולה משמשת צוואר בקבוק בין אירופה, אסיה ואפריקה. מדי שנה עוברים בארץ למעלה ממאה אלף עגורים אפורים, וכמה עשרות אלפים מהם בוחרים להישאר כאן לחורף במקום להמשיך דרומה. ההאכלה המכוונת בשדות פותחה כדי למנוע נזק לחקלאות — סיפור טוב להסביר בו את הממשק בין חקלאות לשימור.",
 "sources":[{"title":"עונת הנדידה מגיעה לשיא – החברה להגנת הטבע","url":"https://www.teva.org.il/news/wildlife/17956"},{"title":"עמק החולה – ויקיפדיה","url":"https://he.wikipedia.org/wiki/עמק_החולה"}]}},

{"type":"Feature","geometry":{"type":"Point","coordinates":[35.3892,31.4614]},"properties":{
 "id":"ein-gedi-ibex","kind":"mammals","name_he":"שמורת עין גדי – יעלים ושפני סלע","name_en":"Ein Gedi – Ibex & Hyrax",
 "region":"judean-desert","season_he":"כל השנה; הכי קל לצפות בבוקר ולפנות ערב",
 "species_he":["יעל נובי","שפן סלע","זאב מדברי","שועל","עפרוני"],
 "description_he":"נווה מדבר בלב המדבר, שבו נפגשים מים, צוק וחום — ולכן ריכוז החי הגבוה באזור. אוכלוסיית היעלים יציבה שנים, וכ-200 יעלים פוקדים את השמורה בעונת האביב. היעלים ושפני הסלע חיים למרגלות המצוקים שבהם זורמים המים. טווח בעלי החיים בשמורה נע מיצורים במשקל 5 גרם ועד היעל. חשוב להסביר למטיילים שאסור להאכיל — האכלה הרסה את התנהגות היעלים באתרים אחרים.",
 "sources":[{"title":"שמורת טבע עין גדי – רשות הטבע והגנים","url":"https://www.parks.org.il/reserve-park/שמורת-טבע-עין-גדי/"},{"title":"שמורת עין גדי – iNature","url":"https://inature.info/wiki/שמורת_עין_גדי"}]}},

{"type":"Feature","geometry":{"type":"Point","coordinates":[35.0667,29.8833]},"properties":{
 "id":"haibar-yotvata","kind":"mammals","name_he":"חי-בר יטבתה – מיני מקרא שהושבו","name_en":"Hai-Bar Yotvata Reserve",
 "region":"arava","season_he":"כל השנה",
 "species_he":["ראם לבן","פרא אסייתי","צבי הנגב","יען","צבי ארץ-ישראלי"],
 "description_he":"שמורה בלב הערבה, כחצי שעה מאילת, שבה חיים בעלי חיים מדבריים שחיו בעבר ברחבי הארץ והוכחדו — והושבו לבית גידולם המקורי. ראמים לבנים, פראים אסייתיים, צבאים ויענים משוטטים בשטח פתוח. זהו אחד המקומות הבודדים בארץ שבהם אפשר לספר את סיפור ההשבה של מיני המקרא — פרויקט שהחל בשנות ה-60 ושינה את תפיסת השימור בישראל.",
 "sources":[{"title":"שמורת טבע חי-בר יוטבתה – רשות הטבע והגנים","url":"https://www.parks.org.il/reserve-park/שמורת-טבע-חי-בר-יוטבתה-2/"},{"title":"חי-בר יטבתה – ויקיפדיה","url":"https://he.wikipedia.org/wiki/חי-בר_יטבתה"}]}},

{"type":"Feature","geometry":{"type":"Point","coordinates":[35.0233,32.7358]},"properties":{
 "id":"carmel-maquis","kind":"plants","name_he":"הר הכרמל – חורש ים-תיכוני","name_en":"Mount Carmel Mediterranean Maquis",
 "region":"carmel","season_he":"פריחה עיקרית: פברואר–אפריל",
 "species_he":["אלון מצוי","אלה ארץ-ישראלית","חרוב מצוי","אלת המסטיק","לוטם","כלנית מצויה"],
 "description_he":"הדוגמה הקלאסית לחורש הים-תיכוני בישראל. חברת הצומח השלטת היא אלון מצוי ואלה ארץ-ישראלית, ולצידם ערער, חרוב ושיחי אלת המסטיק. בכרמל בולטות ארבע חברות צומח: חרוב ואלת המסטיק באזורים המערביים הנמוכים, ואלון מצוי ואלה ארץ-ישראלית על הרכסים. זהו בית גידול שנשען על גשמי חורף וקיץ יבש — ולכן גם רגיש מאוד לשריפות, כפי שהראתה שריפת הכרמל 2010.",
 "sources":[{"title":"אלון מצוי – צמחיית ישראל וסביבתה","url":"https://flora.org.il/plants/quecoc/"},{"title":"חורש ויער ים-תיכוני – צמחיית ישראל וסביבתה","url":"https://flora.org.il/plants/habitat/mediterranean-maquis-and-forest/"},{"title":"גן לאומי הר הכרמל – iNature","url":"https://inature.info/wiki/גן_לאומי_הר_הכרמל"}]}},

{"type":"Feature","geometry":{"type":"Point","coordinates":[34.8003,30.6097]},"properties":{
 "id":"makhtesh-ramon-wildlife","kind":"mixed","name_he":"מכתש רמון – חי וצומח מדברי","name_en":"Makhtesh Ramon – Desert Life",
 "region":"negev-central","season_he":"פריחה אחרי גשם: פברואר–מרץ; חי — בוקר וערב",
 "species_he":["יעל נובי","צבי הנגב","זאב מדברי","שיטה סוככנית","רותם המדבר"],
 "description_he":"במכתש נפגשים חי וצומח מדבריים עם תנאי קיצון. עצי השיטה מפוזרים בערוצי הנחלים — הם שואבים מים מעומק ומהווים 'עץ מפתח' שסביבו תלוי חלק ניכר מהחי במדבר. רותם המדבר, שיח בעל פריחה לבנה ריחנית, הוא מהצמחים הבולטים במדרונות; הוא מוזכר בתנ\"ך בבריחת אליהו למדבר. אחרי שנה גשומה המכתש מכוסה בפריחה קצרה ועזה.",
 "sources":[{"title":"מכתש רמון – ויקיפדיה","url":"https://he.wikipedia.org/wiki/מכתש_רמון"},{"title":"רותם המדבר – צמחיית ישראל וסביבתה","url":"https://flora.org.il/plants/retram/"}]}},

{"type":"Feature","geometry":{"type":"Point","coordinates":[35.7833,33.3000]},"properties":{
 "id":"hermon-alpine","kind":"plants","name_he":"החרמון – צומח אלפיני ייחודי","name_en":"Mount Hermon – Alpine Flora",
 "region":"golan","season_he":"פריחה: מאי–יולי, אחרי הפשרת השלג",
 "species_he":["אירוס הגלבוע (חרמוני)","קורנית","בצלים גיאופיטים","קוצנית"],
 "description_he":"בית הגידול היחיד בישראל שבו יורד שלג באופן קבוע, ולכן גם היחיד שמארח מיני צומח הרריים-אלפיניים שאינם קיימים בשום מקום אחר בארץ. הפריחה מתרחשת מאוחר, אחרי הפשרת השלג, ולא בחורף כמו בשאר הארץ — הבדל שממחיש למטיילים כמה הגובה משנה את לוח השנה של הטבע. עשרות מינים כאן הם בסכנת הכחדה מקומית.",
 "sources":[{"title":"החרמון – ויקיפדיה","url":"https://he.wikipedia.org/wiki/החרמון"},{"title":"שמורת טבע החרמון – רשות הטבע והגנים","url":"https://www.parks.org.il/reserve-park/שמורת-טבע-הר-חרמון/"}]}},

{"type":"Feature","geometry":{"type":"Point","coordinates":[35.4589,31.7189]},"properties":{
 "id":"einot-tzukim","kind":"mixed","name_he":"עיינות צוקים (עין פשחה)","name_en":"Einot Tzukim (Ein Feshkha)",
 "region":"dead-sea","season_he":"כל השנה",
 "species_he":["קנה מצוי","סוף","אשל","נוטריה","ציפורי ביצה"],
 "description_he":"נווה המים הנמוך בעולם, בגובה כ-430 מטר מתחת לפני הים. מעיינות מתוקים ומליחים פורצים כאן במפגש בין מצוק ההעתקים לים המלח, ויוצרים ביצה בלב המדבר. הניגוד בין צמחיית המים לצמחיית המדבר במרחק מטרים ספורים הוא אחת ההדגמות החזקות שיש למדריך על תלות הצומח במים ולא בטמפרטורה.",
 "sources":[{"title":"שמורת טבע עיינות צוקים – רשות הטבע והגנים","url":"https://www.parks.org.il/reserve-park/שמורת-טבע-עינות-צוקים/"},{"title":"עיינות צוקים – ויקיפדיה","url":"https://he.wikipedia.org/wiki/עיינות_צוקים"}]}},

{"type":"Feature","geometry":{"type":"Point","coordinates":[34.6889,31.9264]},"properties":{
 "id":"coastal-sand-flora","kind":"plants","name_he":"חולות החוף – חבצלת החוף","name_en":"Coastal Dunes – Sea Daffodil",
 "region":"sharon","season_he":"פריחת חבצלת החוף: אוגוסט–ספטמבר",
 "species_he":["חבצלת החוף","אחירותם החולות","יפרוק החולות","חומעה"],
 "description_he":"בית הגידול המצטמצם ביותר בישראל — רוב חולות החוף נבנו או נטעו. חבצלת החוף פורחת דווקא בסוף הקיץ, מהפריחות המאוחרות בשנה, ומותאמת לחול נודד: הבצל יורד עמוק והעלים נעלמים בקיץ. זהו מין מוגן. הסיפור של הכחדת בית הגידול הזה הוא דוגמה טובה למתח בין פיתוח החוף לשימור.",
 "sources":[{"title":"חבצלת החוף – צמחיית ישראל וסביבתה","url":"https://flora.org.il/plants/pancmar/"},{"title":"חבצלת החוף – ויקיפדיה","url":"https://he.wikipedia.org/wiki/חבצלת_החוף"}]}},

{"type":"Feature","geometry":{"type":"Point","coordinates":[35.7167,32.5500]},"properties":{
 "id":"gilboa-iris","kind":"plants","name_he":"הגלבוע – אירוס הגלבוע","name_en":"Mount Gilboa – Gilboa Iris",
 "region":"jezreel-valley","season_he":"פריחה: פברואר–מרץ",
 "species_he":["אירוס הגלבוע","כלנית מצויה","נורית אסיה","עירית"],
 "description_he":"אירוס הגלבוע הוא צמח אנדמי — הוא גדל בטבע רק כאן ובאזור מצומצם נוסף, ואינו קיים בשום מקום אחר בעולם. הפריחה קצרה, שבועות ספורים בסוף החורף, ומושכת אליה אלפי מטיילים. זהו מין בסכנת הכחדה ומוגן בחוק. המדרון הצפוני של הגלבוע לח יותר ולכן עשיר בגיאופיטים.",
 "sources":[{"title":"אירוס הגלבוע – צמחיית ישראל וסביבתה","url":"https://flora.org.il/plants/irihay/"},{"title":"אירוס הגלבוע – ויקיפדיה","url":"https://he.wikipedia.org/wiki/אירוס_הגלבוע"}]}},

{"type":"Feature","geometry":{"type":"Point","coordinates":[35.6500,32.9000]},"properties":{
 "id":"yehudiya-forest","kind":"mixed","name_he":"שמורת יער יהודיה – נחלי הגולן","name_en":"Yehudiya Forest Reserve",
 "region":"golan","season_he":"כל השנה; זרימה מלאה בחורף–אביב",
 "species_he":["אלון התבור","שיזף מצוי","דולב מזרחי","נשר מקראי","חזיר בר"],
 "description_he":"יער פארק של אלון התבור על אדמת בזלת, שאותו חוצים נחלי איתן היורדים לכינרת. הדולב המזרחי גדל דווקא לאורך הנחלים — עץ הזקוק למים זמינים כל השנה, ולכן הוא סמן ודאי לנוכחות מים. יער פארק פתוח כזה, בשונה מחורש צפוף, הוא תוצאה של שילוב אדמת בזלת עמוקה ורעייה היסטורית.",
 "sources":[{"title":"שמורת טבע יער יהודיה – רשות הטבע והגנים","url":"https://www.parks.org.il/reserve-park/שמורת-טבע-יהודיה/"},{"title":"אלון התבור – צמחיית ישראל וסביבתה","url":"https://flora.org.il/plants/queith/"}]}},

{"type":"Feature","geometry":{"type":"Point","coordinates":[34.9053,31.2508]},"properties":{
 "id":"nahal-besor-loess","kind":"mixed","name_he":"נחל הבשור – בתות הלס","name_en":"Nahal Besor – Loess Steppe",
 "region":"negev-north","season_he":"פריחת כלניות: ינואר–פברואר",
 "species_he":["כלנית מצויה","אירוס הנגב","צבי ארץ-ישראלי","עיט חורף"],
 "description_he":"אזור הלס של צפון-מערב הנגב, שבו נערך מדי שנה 'דרום אדום' — פריחת כלניות המונית. הלס אינו חדיר למים, ולכן גשם עז יוצר נגר עילי חזק וערוצים חרוצים; זה גם מה שאיפשר את החקלאות הקדומה בעזרת סכרים. אזור זה הוא גבול המדבר ולכן רגיש במיוחד לשינויי אקלים — שנה יבשה משנה לגמרי את עוצמת הפריחה.",
 "sources":[{"title":"נחל הבשור – ויקיפדיה","url":"https://he.wikipedia.org/wiki/נחל_הבשור"},{"title":"כלנית מצויה – צמחיית ישראל וסביבתה","url":"https://flora.org.il/plants/anecor/"}]}},

{"type":"Feature","geometry":{"type":"Point","coordinates":[35.2103,32.9236]},"properties":{
 "id":"galilee-oak-woodland","kind":"plants","name_he":"הגליל העליון – חורש וגיאופיטים","name_en":"Upper Galilee Woodland",
 "region":"galilee-upper","season_he":"פריחה: ינואר–אפריל",
 "species_he":["אלון מצוי","אלה ארץ-ישראלית","רקפת מצויה","כלנית","סחלבים"],
 "description_he":"האזור הגשום בישראל (מעל 900 מ\"מ בשנה בהרי מירון), ולכן החורש כאן הצפוף והגבוה בארץ. ריבוי הגשם ומגוון בתי הגידול — מדרונות, נקיקים ומצוקי גיר — מייצרים את עושר מיני הסחלבים והגיאופיטים הגדול בישראל. הרקפת פורחת בחורף בנקיקי הסלע, מותאמת לצל ולסלע הגירני.",
 "sources":[{"title":"הגליל העליון – ויקיפדיה","url":"https://he.wikipedia.org/wiki/הגליל_העליון"},{"title":"רקפת מצויה – צמחיית ישראל וסביבתה","url":"https://flora.org.il/plants/cycper/"}]}},

{"type":"Feature","geometry":{"type":"Point","coordinates":[34.9522,29.5581]},"properties":{
 "id":"eilat-bird-migration","kind":"birds","name_he":"אילת – צוואר בקבוק הנדידה","name_en":"Eilat – Migration Bottleneck",
 "region":"eilat","season_he":"נדידת אביב: מרץ–מאי; סתיו: ספטמבר–נובמבר",
 "species_he":["דורסים נודדים","חסידה לבנה","שרקרק","ציפורי שיר","אנפות"],
 "description_he":"אילת יושבת בקצה הדרומי של בקע ים המלח, בנקודה שבה מיליוני ציפורים נודדות בין אירופה-אסיה לאפריקה נאלצות לעבור מסדרון צר בין הים למדבר. הדורסים תלויים בזרמי אוויר חמים העולים מהיבשה ולכן אינם חוצים ימים — מה שמרכז אותם כאן בכמויות עצומות. פארק הצפרות של אילת הוקם כפיצוי על ייבוש המלחות שבהן נחו הציפורים.",
 "sources":[{"title":"פארק הצפרות אילת – ויקיפדיה","url":"https://he.wikipedia.org/wiki/פארק_הצפרות_של_אילת"},{"title":"נדידת הציפורים בישראל – החברה להגנת הטבע","url":"https://www.teva.org.il/news/wildlife/17956"}]}}
]}
